OBJECT_NAME,OBJECT_ID,EPOCH,MEAN_MOTION,ECCENTRICITY,INCLINATION,RA_OF_ASC_NODE,ARG_OF_PERICENTER,MEAN_ANOMALY,EPHEMERIS_TYPE,CLASSIFICATION_TYPE,NORAD_CAT_ID,ELEMENT_SET_NO,REV_AT_EPOCH,BSTAR,MEAN_MOTION_DOT,MEAN_MOTION_DDOT
SAR-LUPE 2,2007-030A,2026-07-06T05:50:47.750208,15.52900181,.00035886,98.1056,294.0831,217.0148,143.0856,0,U,31797,999,5989,.62302767E-3,.38742E-3,0
SAPPHIRE,2013-009C,2026-07-06T06:19:46.049952,14.35245866,.00110125,98.4270,6.2673,186.0885,174.0169,0,U,39088,999,69931,.51519041E-4,.105E-5,0
PRAETORIAN SDA_602,2025-203A,2026-07-05T23:08:10.068288,13.83887470,.00067812,81.3034,353.3807,139.1623,221.0042,0,U,65565,999,4129,.69545281E-4,.89E-6,0
PRAETORIAN SDA_603,2025-203B,2026-07-05T22:05:30.100128,13.83961758,.0010396,81.3041,353.3433,137.4959,222.7004,0,U,65566,999,4129,.17955203E-3,.211E-5,0
PRAETORIAN SDA_604,2025-203C,2026-07-05T22:50:47.879520,13.83049596,.00062494,81.3058,353.7552,142.7768,217.3822,0,U,65567,999,4127,.58572781E-4,.76E-6,0
PRAETORIAN SDA_605,2025-203D,2026-07-02T20:59:13.896096,13.83435094,.0008905,81.3021,356.2472,142.0754,218.1031,0,U,65568,999,4086,.92536E-5,.22E-6,0
PRAETORIAN SDA_606,2025-203E,2026-07-05T23:17:00.363840,13.83199572,.0006888,81.3060,353.6191,137.4777,222.6914,0,U,65569,999,4128,.50567675E-4,.67E-6,0
PRAETORIAN SDA_607,2025-203F,2026-07-05T23:08:28.652064,13.83758742,.00096458,81.3042,353.2543,137.4581,222.7325,0,U,65570,999,4130,.15218807E-3,.18E-5,0
PRAETORIAN SDA_608,2025-203G,2026-07-05T22:43:53.933664,13.83818886,.00067503,81.3012,353.4378,141.9081,218.2553,0,U,65571,999,4128,.62953539E-4,.82E-6,0
PRAETORIAN SDA_609,2025-203H,2026-07-05T22:43:19.046208,13.84210930,.00076999,81.3054,353.4180,136.9949,223.1811,0,U,65572,999,4129,.15352663E-3,.183E-5,0
PRAETORIAN SDA_610,2025-203J,2026-07-05T22:15:40.647456,13.83769216,.00075342,81.3013,353.4156,141.4931,218.6764,0,U,65573,999,4128,.32497799E-4,.48E-6,0
PRAETORIAN SDA_611,2025-203K,2026-07-05T22:25:46.177536,13.83311408,.00063548,81.3022,353.5874,145.6233,214.5335,0,U,65574,999,4127,.46133324E-3,.518E-5,0
PRAETORIAN SDA_612,2025-203L,2026-07-05T23:21:09.051552,13.85040690,.00099745,81.3033,353.0926,137.4583,222.7349,0,U,65575,999,4131,.15980169E-3,.193E-5,0
PRAETORIAN SDA_613,2025-203M,2026-07-05T22:46:05.613312,13.82767135,.0006495,81.3005,353.5864,136.2239,223.9432,0,U,65576,999,4127,.65416541E-4,.83E-6,0
PRAETORIAN SDA_614,2025-203N,2026-07-05T23:10:40.487232,13.84777948,.00079375,81.3009,353.1817,135.3315,224.8483,0,U,65577,999,4131,-.17799779E-4,-.8E-7,0
PRAETORIAN SDA_615,2025-203P,2026-07-05T22:44:03.032448,13.84436978,.00100025,81.3032,353.1750,136.2338,223.9614,0,U,65578,999,4130,.16921602E-3,.201E-5,0
PRAETORIAN SDA_616,2025-203Q,2026-07-05T22:25:26.538816,13.83269889,.00062324,81.3068,353.7457,143.8097,216.3482,0,U,65579,999,4127,.27808272E-3,.317E-5,0
PRAETORIAN SDA_617,2025-203R,2026-07-05T22:58:51.457728,13.83151432,.00082075,81.3042,353.5538,135.5884,224.5932,0,U,65580,999,4128,.3870635E-4,.54E-6,0
PRAETORIAN SDA_618,2025-203S,2026-07-05T23:39:04.062816,13.84224979,.00106109,81.3027,353.0681,139.7750,220.4194,0,U,65581,999,4131,.128515E-3,.155E-5,0
PRAETORIAN SDA_619,2025-203T,2026-07-05T22:59:12.143616,13.83805803,.00090188,81.3049,353.4142,136.8796,223.3068,0,U,65582,999,4192,.15846183E-3,.187E-5,0
PRAETORIAN SDA_620,2025-203U,2026-07-05T23:44:15.432864,13.83304745,.00084033,81.3035,353.4102,133.7777,226.4076,0,U,65583,999,4129,.17505222E-3,.204E-5,0
PRAETORIAN SDA_621,2025-203V,2026-07-05T23:01:49.752768,13.83803469,.00082653,81.3026,353.3467,130.8116,229.3759,0,U,65584,999,4129,.75272196E-4,.95E-6,0
PRAETORIAN SDA_601,2025-203W,2026-07-05T22:31:54.646752,13.83170455,.00062873,81.3052,353.6837,146.3583,213.7973,0,U,65585,999,4127,.27711737E-3,.315E-5,0
VICTUS HAZE PUMA,2026-142A,2026-07-06T07:07:44.909184,15.20802356,.00253012,97.4477,84.7036,299.0120,60.8580,0,U,69646,999,257,.19386484E-4,.359E-5,0
